[{"OBJECT_NAME":"PRAETORIAN SDA_606","OBJECT_ID":"2025-203E","EPOCH":"2026-03-09T13:52:35.845824","MEAN_MOTION":13.83528814,"ECCENTRICITY":0.0007292,"INCLINATION":81.3028,"RA_OF_ASC_NODE":103.1011,"ARG_OF_PERICENTER":99.5197,"MEAN_ANOMALY":260.6784,"EPHEMERIS_TYPE":0,"CLASSIFICATION_TYPE":"U","NORAD_CAT_ID":65569,"ELEMENT_SET_NO":999,"REV_AT_EPOCH":2491,"BSTAR":0.0002082,"MEAN_MOTION_DOT":2.41e-6,"MEAN_MOTION_DDOT":0},{"OBJECT_NAME":"COSMOS 1275 DEB","OBJECT_ID":"1981-053FA","EPOCH":"2026-03-09T12:45:23.364288","MEAN_MOTION":13.8423471,"ECCENTRICITY":0.00307709,"INCLINATION":82.9417,"RA_OF_ASC_NODE":254.0306,"ARG_OF_PERICENTER":166.7657,"MEAN_ANOMALY":248.5558,"EPHEMERIS_TYPE":0,"CLASSIFICATION_TYPE":"U","NORAD_CAT_ID":13074,"ELEMENT_SET_NO":999,"REV_AT_EPOCH":24272,"BSTAR":0.00057625931,"MEAN_MOTION_DOT":6.61e-6,"MEAN_MOTION_DDOT":0}]
